<?xml version="1.0" encoding="UTF-8"?><kml xmlns="http://www.opengis.net"><Document><Placemark><LineString><altitudeMode>relativeToGround</altitudeMode><coordinates>
-97.603764,30.323915,0.0
-97.603762,30.323913,-0.2
-97.603760,30.323906,-0.1
-97.603760,30.323906,0.1
-97.603761,30.323904,-0.0
-97.603761,30.323904,0.0
-97.603763,30.323899,-0.0
-97.603763,30.323899,-0.4
-97.603763,30.323897,-0.2
-97.603763,30.323897,-0.3
-97.603764,30.323895,0.1
-97.603764,30.323895,-0.0
-97.603766,30.323894,-0.2
-97.603766,30.323894,-0.3
-97.603768,30.323891,-0.1
-97.603768,30.323891,-0.2
-97.603770,30.323889,-0.2
-97.603770,30.323889,-0.3
-97.603771,30.323887,-0.2
-97.603771,30.323887,-0.1
-97.603772,30.323882,-0.3
-97.603772,30.323882,-0.3
-97.603773,30.323882,-0.0
-97.603773,30.323882,-0.1
-97.603773,30.323881,-0.1
-97.603773,30.323881,-0.2
-97.603791,30.323869,-0.4
-97.603791,30.323869,-0.3
-97.603782,30.323869,-0.4
-97.603782,30.323869,-0.4
-97.603780,30.323872,-0.3
-97.603780,30.323872,0.1
-97.603785,30.323878,-0.1
-97.603785,30.323878,-0.3
-97.603785,30.323878,-0.2
-97.603787,30.323880,-0.1
-97.603787,30.323875,-0.1
-97.603787,30.323875,-0.2
-97.603786,30.323878,-0.2
-97.603786,30.323878,-0.2
-97.603784,30.323876,-0.1
-97.603784,30.323876,-0.3
-97.603784,30.323877,-0.3
-97.603784,30.323877,-0.1
-97.603795,30.323869,0.3
-97.603795,30.323869,-0.2
-97.603787,30.323842,-0.5
-97.603787,30.323842,-0.6
-97.603773,30.323821,-0.3
-97.603773,30.323821,-0.3
-97.603759,30.323822,-0.4
-97.603759,30.323822,-0.3
-97.603743,30.323829,-0.7
-97.603743,30.323829,-0.6
-97.603716,30.323842,-0.7
-97.603716,30.323842,-0.7
-97.603695,30.323847,-0.7
-97.603695,30.323847,-0.5
-97.603685,30.323860,-0.7
-97.603685,30.323860,-1.1
-97.603677,30.323872,-0.7
-97.603677,30.323872,-0.9
-97.603676,30.323880,-1.2
-97.603676,30.323880,-1.2
-97.603674,30.323880,-1.5
-97.603674,30.323880,-1.1
-97.603679,30.323885,-1.1
-97.603679,30.323885,-1.2
-97.603679,30.323891,-1.4
-97.603679,30.323891,-1.3
-97.603675,30.323886,-1.1
-97.603675,30.323886,-1.4
-97.603672,30.323883,-1.2
-97.603672,30.323883,-1.4
-97.603674,30.323886,-1.6
-97.603674,30.323886,-1.5
-97.603674,30.323886,-1.1
-97.603674,30.323886,-1.4
-97.603672,30.323886,-1.6
-97.603672,30.323886,-1.3
-97.603671,30.323886,-0.9
-97.603671,30.323886,-0.7
-97.603666,30.323882,-1.2
-97.603666,30.323882,-1.3
-97.603664,30.323882,-1.1
-97.603664,30.323882,-1.1
-97.603663,30.323882,-1.1
-97.603663,30.323882,-1.0
-97.603661,30.323881,-0.8
-97.603661,30.323881,-1.1
-97.603659,30.323879,-1.1
-97.603659,30.323879,-1.1
-97.603656,30.323878,-1.0
-97.603656,30.323878,-0.8
-97.603655,30.323877,-1.0
-97.603655,30.323877,-1.1
-97.603654,30.323877,-1.4
-97.603654,30.323877,-1.1
-97.603652,30.323877,-0.9
-97.603652,30.323877,-1.1
-97.603651,30.323878,-1.2
-97.603651,30.323878,-1.4
-97.603649,30.323877,-1.3
-97.603649,30.323877,-1.2
-97.603647,30.323877,-1.3
-97.603647,30.323877,-1.2
-97.603646,30.323877,-0.9
-97.603646,30.323877,-0.9
-97.603644,30.323878,-0.9
-97.603644,30.323878,-0.8
-97.603643,30.323884,-1.2
-97.603643,30.323884,-0.9
-97.603641,30.323894,-1.1
-97.603641,30.323894,-0.9
-97.603636,30.323903,-1.2
-97.603636,30.323903,-1.2
-97.603631,30.323917,-1.0
-97.603631,30.323917,-1.0
-97.603620,30.323930,-1.2
-97.603620,30.323930,-1.3
-97.603610,30.323943,-1.2
-97.603610,30.323943,-0.9
-97.603601,30.323948,-1.4
-97.603601,30.323948,-1.1
-97.603600,30.323948,-1.1
-97.603600,30.323948,-1.0
-97.603594,30.323950,-1.1
-97.603594,30.323950,-1.2
-97.603584,30.323952,-0.9
-97.603584,30.323952,-1.1
-97.603573,30.323955,-1.2
-97.603573,30.323955,-1.2
-97.603561,30.323961,-1.0
-97.603561,30.323961,-1.0
-97.603561,30.323961,-0.8
-97.603561,30.323961,-1.1
-97.603525,30.323974,-1.1
-97.603525,30.323974,-1.2
-97.603507,30.323981,-1.3
-97.603507,30.323981,-1.3
-97.603488,30.323986,-1.2
-97.603488,30.323986,-1.1
-97.603469,30.323991,-1.1
-97.603469,30.323991,-1.2
-97.603454,30.323998,-1.2
-97.603454,30.323998,-1.4
-97.603441,30.324004,-1.2
-97.603441,30.324004,-1.5
-97.603432,30.324009,-1.3
-97.603432,30.324009,-1.3
-97.603432,30.324023,-1.4
-97.603432,30.324023,-1.5
-97.603425,30.324032,-1.3
-97.603425,30.324032,-1.3
-97.603407,30.324035,-1.3
-97.603407,30.324035,-1.2
-97.603386,30.324037,-1.3
-97.603386,30.324037,-1.0
-97.603370,30.324022,-0.9
-97.603370,30.324022,-1.4
-97.603370,30.324022,-0.9
-97.603370,30.324022,-0.9
-97.603337,30.324012,-1.2
-97.603337,30.324012,-1.0
-97.603319,30.324002,-1.0
-97.603319,30.324002,-1.4
-97.603301,30.323986,-1.0
-97.603301,30.323986,-1.2
-97.603282,30.323964,-1.0
-97.603282,30.323964,-1.4
-97.603263,30.323934,-1.2
-97.603263,30.323934,-1.4
-97.603234,30.323913,-1.5
-97.603234,30.323913,-1.3
-97.603227,30.323893,-1.3
-97.603227,30.323893,-1.5
-97.603232,30.323879,-1.3
-97.603232,30.323879,-1.6
-97.603244,30.323875,-1.4
-97.603244,30.323875,-1.3
-97.603252,30.323879,-1.2
-97.603252,30.323879,-1.4
-97.603257,30.323883,-1.4
-97.603257,30.323883,-1.4
-97.603258,30.323883,-1.4
-97.603258,30.323883,-1.5
-97.603258,30.323882,-1.4
-97.603258,30.323882,-1.2
-97.603258,30.323881,-1.3
-97.603258,30.323881,-1.4
-97.603260,30.323883,-1.4
-97.603260,30.323883,-1.5
-97.603263,30.323888,-1.3
-97.603263,30.323888,-1.4
-97.603268,30.323900,-1.2
-97.603268,30.323900,-1.1
-97.603271,30.323910,-0.8
-97.603271,30.323910,-1.2
-97.603271,30.323910,-1.0
-97.603271,30.323910,-1.2
-97.603264,30.323964,-1.0
-97.603264,30.323964,-0.6
-97.603275,30.324003,0.3
-97.603275,30.324003,1.2
-97.603275,30.324003,2.4
-97.603275,30.324003,5.0
-97.603275,30.324003,7.5
-97.603275,30.324003,9.5
-97.603385,30.324205,11.2
-97.603385,30.324205,12.6
-97.603385,30.324205,13.3
-97.603385,30.324205,14.4
-97.603385,30.324205,15.0
-97.603385,30.324205,16.1
-97.603385,30.324205,17.6
-97.603385,30.324205,18.5
-97.603352,30.324698,20.5
-97.603352,30.324698,21.5
-97.603266,30.324841,23.4
-97.603266,30.324841,23.8
-97.603266,30.324841,25.0
-97.603266,30.324841,25.3
-97.603266,30.324841,25.6
-97.603266,30.324841,26.1
-97.603266,30.324841,26.7
-97.603266,30.324841,27.8
-97.603266,30.324841,28.9
-97.603266,30.324841,29.1
-97.603266,30.324841,29.8
-97.603266,30.324841,30.2
-97.603266,30.324841,31.3
-97.603266,30.324841,31.3
-97.602692,30.325098,30.7
-97.602692,30.325098,30.4
-97.602610,30.325005,29.6
-97.602610,30.325005,28.9
-97.602443,30.324880,28.8
-97.602443,30.324880,29.1
-97.602311,30.324749,30.6
-97.602311,30.324749,31.6
-97.602295,30.324649,33.2
-97.602295,30.324649,34.0
-97.602211,30.324507,34.6
-97.602211,30.324507,35.7
-97.602141,30.324372,36.4
-97.602141,30.324372,37.4
-97.602092,30.324244,37.6
-97.602092,30.324244,38.0
-97.602055,30.324110,38.2
-97.602055,30.324110,39.2
-97.602017,30.323964,39.5
-97.602017,30.323964,40.3
-97.601978,30.323809,40.9
-97.601978,30.323809,41.3
-97.601945,30.323650,41.9
-97.601945,30.323650,42.3
-97.601933,30.323488,42.5
-97.601933,30.323488,42.7
-97.601931,30.323335,43.0
-97.601931,30.323335,43.9
-97.601955,30.323195,44.6
-97.601955,30.323195,45.6
-97.602033,30.323076,46.0
-97.602033,30.323076,46.8
-97.602033,30.323076,48.0
-97.602033,30.323076,48.5
-97.602033,30.323076,49.3
-97.602033,30.323076,49.5
-97.602033,30.323076,49.7
-97.602033,30.323076,49.4
-97.602033,30.323076,49.8
-97.602033,30.323076,49.4
-97.602033,30.323076,48.1
-97.602033,30.323076,47.7
-97.602033,30.323076,46.4
-97.602033,30.323076,45.5
-97.602033,30.323076,44.3
-97.602033,30.323076,44.2
-97.602033,30.323076,42.9
-97.602033,30.323076,40.6
-97.602033,30.323076,40.6
-97.602033,30.323076,38.9
-97.602033,30.323076,36.6
-97.602033,30.323076,34.7
-97.602033,30.323076,32.6
-97.602033,30.323076,30.6
-97.602033,30.323076,29.1
-97.602033,30.323076,28.1
-97.602033,30.323076,27.5
-97.602033,30.323076,28.3
-97.602033,30.323076,29.8
-97.602033,30.323076,31.0
-97.602033,30.323076,31.9
-97.602033,30.323076,31.4
-97.602033,30.323076,32.1
-97.602033,30.323076,32.5
-97.602033,30.323076,32.3
-97.602033,30.323076,32.5
-97.602033,30.323076,32.1
-97.602033,30.323076,32.2
-97.602033,30.323076,32.7
-97.602033,30.323076,33.2
-97.602033,30.323076,33.6
-97.602033,30.323076,34.2
-97.602033,30.323076,35.0
-97.602033,30.323076,35.3
-97.603585,30.324956,35.4
-97.603585,30.324956,35.7
-97.603523,30.325089,36.0
-97.603523,30.325089,36.5
-97.603523,30.325089,36.3
-97.603523,30.325089,36.4
-97.603444,30.325248,36.6
-97.603444,30.325248,37.3
-97.603377,30.325314,37.3
-97.603377,30.325314,37.9
-97.603297,30.325365,38.5
-97.603297,30.325365,38.8
-97.603168,30.325377,38.7
-97.603168,30.325377,39.0
-97.603044,30.325388,39.3
-97.603044,30.325388,39.2
-97.602918,30.325336,39.8
-97.602918,30.325336,39.7
-97.602800,30.325247,39.7
-97.602800,30.325247,39.8
-97.602705,30.325137,39.5
-97.602705,30.325137,39.1
-97.602632,30.324994,39.1
-97.602632,30.324994,38.9
-97.602554,30.324852,37.6
-97.602554,30.324852,36.5
-97.602463,30.324714,36.4
-97.602463,30.324714,36.1
-97.602370,30.324568,35.8
-97.602370,30.324568,35.3
-97.602284,30.324418,35.4
-97.602284,30.324418,36.0
-97.602208,30.324264,37.1
-97.602208,30.324264,36.3
-97.602149,30.324105,36.7
-97.602149,30.324105,36.4
-97.602111,30.323943,37.3
-97.602111,30.323943,36.4
-97.602108,30.323777,36.7
-97.602108,30.323777,36.8
-97.602139,30.323614,36.2
-97.602139,30.323614,36.3
-97.602208,30.323454,37.1
-97.602208,30.323454,37.8
-97.602301,30.323318,39.0
-97.602301,30.323318,40.3
-97.602420,30.323231,40.8
-97.602420,30.323231,41.4
-97.602545,30.323174,41.9
-97.602545,30.323174,41.6
-97.602680,30.323153,40.7
-97.602680,30.323153,40.1
-97.602812,30.323186,39.5
-97.602812,30.323186,38.5
-97.602901,30.323275,38.6
-97.602901,30.323275,37.9
-97.602966,30.323383,37.4
-97.602966,30.323383,37.1
-97.603030,30.323493,37.0
-97.603030,30.323493,36.8
-97.603104,30.323603,36.1
-97.603104,30.323603,36.1
-97.603162,30.323717,35.2
-97.603162,30.323717,33.5
-97.603191,30.323836,33.2
-97.603191,30.323836,31.0
-97.603218,30.323960,29.8
-97.603218,30.323960,29.5
-97.603285,30.324085,29.0
-97.603285,30.324085,27.9
-97.603372,30.324196,28.0
-97.603372,30.324196,26.6
-97.603458,30.324302,26.3
-97.603458,30.324302,26.1
-97.603540,30.324405,25.9
-97.603540,30.324405,25.6
-97.603605,30.324516,24.6
-97.603605,30.324516,24.1
-97.603681,30.324627,23.9
-97.603681,30.324627,24.4
-97.603745,30.324738,25.1
-97.603745,30.324738,26.5
-97.603786,30.324834,27.3
-97.603786,30.324834,27.4
-97.603744,30.324923,28.0
-97.603744,30.324923,27.7
-97.603656,30.324998,27.6
-97.603656,30.324998,27.7
-97.603537,30.325032,27.6
-97.603537,30.325032,28.0
-97.603416,30.325054,27.9
-97.603416,30.325054,28.2
-97.603290,30.325071,28.1
-97.603290,30.325071,28.4
-97.603163,30.325090,28.5
-97.603163,30.325090,28.1
-97.603031,30.325099,27.9
-97.603031,30.325099,27.4
-97.602891,30.325080,27.3
-97.602891,30.325080,27.0
-97.602760,30.325006,26.5
-97.602760,30.325006,27.2
-97.602655,30.324892,27.2
-97.602655,30.324892,27.1
-97.602598,30.324751,27.1
-97.602598,30.324751,27.5
-97.602598,30.324751,27.7
-97.602598,30.324751,28.0
-97.602444,30.324489,28.0
-97.602444,30.324489,28.7
-97.602357,30.324372,28.8
-97.602357,30.324372,29.1
-97.602277,30.324249,29.2
-97.602277,30.324249,29.1
-97.602205,30.324123,29.3
-97.602205,30.324123,28.8
-97.602140,30.323987,29.2
-97.602140,30.323987,29.2
-97.602087,30.323834,28.9
-97.602087,30.323834,29.4
-97.602055,30.323679,30.4
-97.602055,30.323679,31.1
-97.602044,30.323526,31.2
-97.602044,30.323526,31.5
-97.602059,30.323373,31.3
-97.602059,30.323373,30.6
-97.602112,30.323211,30.2
-97.602112,30.323211,30.0
-97.602209,30.323055,29.7
-97.602209,30.323055,30.0
-97.602339,30.322918,30.5
-97.602339,30.322918,30.4
-97.602499,30.322841,32.0
-97.602499,30.322841,32.8
-97.602665,30.322806,33.0
-97.602665,30.322806,32.7
-97.602836,30.322818,33.0
-97.602836,30.322818,31.8
-97.602978,30.322880,31.3
-97.602978,30.322880,30.8
-97.603067,30.322988,30.2
-97.603067,30.322988,29.8
-97.603099,30.323108,30.5
-97.603099,30.323108,30.6
-97.603105,30.323231,31.3
-97.603105,30.323231,30.6
-97.603097,30.323359,31.4
-97.603097,30.323359,32.4
-97.603088,30.323495,31.3
-97.603088,30.323495,31.4
-97.603089,30.323634,31.7
-97.603089,30.323634,31.1
-97.603115,30.323777,30.9
-97.603115,30.323777,31.0
-97.603171,30.323919,30.1
-97.603171,30.323919,30.7
-97.603249,30.324054,30.2
-97.603249,30.324054,31.1
-97.603346,30.324179,31.4
-97.603346,30.324179,31.3
-97.603447,30.324298,31.5
-97.603447,30.324298,31.4
-97.603538,30.324423,31.3
-97.603538,30.324423,30.7
-97.603618,30.324552,30.9
-97.603618,30.324552,30.7
-97.603696,30.324679,30.4
-97.603696,30.324679,30.1
-97.603779,30.324808,28.9
-97.603779,30.324808,28.5
-97.603862,30.324942,28.7
-97.603862,30.324942,29.0
-97.603904,30.325073,30.8
-97.603904,30.325073,32.2
-97.603897,30.325191,33.6
-97.603897,30.325191,34.7
-97.603850,30.325291,35.6
-97.603850,30.325291,36.2
-97.603752,30.325375,36.6
-97.603752,30.325375,36.8
-97.603628,30.325423,37.2
-97.603628,30.325423,36.8
-97.603471,30.325440,36.5
-97.603471,30.325440,36.1
-97.603304,30.325441,35.1
-97.603304,30.325441,34.3
-97.603138,30.325448,34.3
-97.603138,30.325448,34.3
-97.602974,30.325442,34.5
-97.602974,30.325442,35.0
-97.602815,30.325398,35.3
-97.602815,30.325398,35.3
-97.602698,30.325285,35.6
-97.602698,30.325285,34.2
-97.602592,30.325146,32.8
-97.602592,30.325146,31.6
-97.602512,30.324968,29.3
-97.602512,30.324968,28.8
-97.602414,30.324788,28.9
-97.602414,30.324788,28.1
-97.602333,30.324601,28.4
-97.602333,30.324601,27.7
-97.602261,30.324418,27.3
-97.602261,30.324418,28.3
-97.602182,30.324254,28.5
-97.602182,30.324254,30.1
-97.602110,30.324113,31.2
-97.602110,30.324113,32.2
-97.602065,30.323981,33.3
-97.602065,30.323981,33.9
-97.602042,30.323838,34.3
-97.602042,30.323838,34.0
-97.602048,30.323688,34.2
-97.602048,30.323688,34.3
-97.602083,30.323534,34.3
-97.602083,30.323534,34.3
-97.602153,30.323396,34.3
-97.602153,30.323396,34.4
-97.602262,30.323290,34.8
-97.602262,30.323290,35.0
-97.602399,30.323226,34.6
-97.602399,30.323226,35.3
-97.602547,30.323193,35.9
-97.602547,30.323193,35.9
-97.602679,30.323236,35.2
-97.602679,30.323236,35.1
-97.602780,30.323287,34.8
-97.602780,30.323287,34.7
-97.602865,30.323379,34.6
-97.602865,30.323379,34.3
-97.602949,30.323478,34.0
-97.602949,30.323478,33.7
-97.602949,30.323478,33.4
-97.602949,30.323478,32.6
-97.603071,30.323692,32.4
-97.603071,30.323692,32.1
-97.603106,30.323815,32.1
-97.603106,30.323815,32.6
-97.603147,30.323940,32.9
-97.603147,30.323940,33.8
-97.603195,30.324064,35.0
-97.603195,30.324064,34.2
-97.603266,30.324183,34.6
-97.603266,30.324183,34.6
-97.603353,30.324297,34.5
-97.603353,30.324297,33.6
-97.603443,30.324412,33.3
-97.603443,30.324412,33.0
-97.603523,30.324524,31.7
-97.603523,30.324524,31.1
-97.603587,30.324648,31.2
-97.603587,30.324648,31.4
-97.603631,30.324770,32.4
-97.603631,30.324770,34.0
-97.603646,30.324885,35.0
-97.603646,30.324885,36.5
-97.603651,30.324977,37.1
-97.603651,30.324977,37.6
-97.603610,30.325068,38.0
-97.603610,30.325068,38.4
-97.603540,30.325142,38.0
-97.603540,30.325142,38.2
-97.603453,30.325205,38.4
-97.603453,30.325205,38.6
-97.603320,30.325245,38.5
-97.603320,30.325245,37.6
-97.603174,30.325261,37.8
-97.603174,30.325261,36.9
-97.603014,30.325252,36.4
-97.603014,30.325252,36.2
-97.602852,30.325221,36.0
-97.602852,30.325221,36.5
-97.602704,30.325154,37.0
-97.602704,30.325154,36.8
-97.602579,30.325051,36.9
-97.602579,30.325051,37.3
-97.602479,30.324921,37.2
-97.602479,30.324921,37.0
-97.602418,30.324771,36.3
-97.602418,30.324771,36.4
-97.602350,30.324625,36.8
-97.602350,30.324625,36.3
-97.602291,30.324476,36.8
-97.602291,30.324476,36.2
-97.602234,30.324324,35.4
-97.602234,30.324324,36.1
-97.602176,30.324171,35.5
-97.602176,30.324171,35.2
-97.602102,30.324023,34.8
-97.602102,30.324023,34.9
-97.602014,30.323899,35.4
-97.602014,30.323899,36.2
-97.601923,30.323785,36.3
-97.601923,30.323785,36.0
-97.601849,30.323666,36.8
-97.601849,30.323666,36.9
-97.601797,30.323534,36.0
-97.601797,30.323534,35.8
-97.601802,30.323384,35.9
-97.601802,30.323384,36.0
-97.601858,30.323230,35.9
-97.601858,30.323230,35.3
-97.601919,30.323085,34.5
-97.601919,30.323085,34.0
-97.602009,30.322993,33.4
-97.602009,30.322993,32.7
-97.602173,30.322931,31.9
-97.602173,30.322931,33.0
-97.602352,30.322889,33.9
-97.602352,30.322889,34.7
-97.602520,30.322889,35.0
-97.602520,30.322889,34.0
-97.602625,30.322911,32.9
-97.602625,30.322911,30.9
-97.602732,30.322970,30.9
-97.602732,30.322970,30.2
-97.602807,30.323077,29.2
-97.602807,30.323077,28.8
-97.602831,30.323203,28.5
-97.602831,30.323203,27.6
-97.602888,30.323319,27.0
-97.602888,30.323319,25.8
-97.602966,30.323439,25.5
-97.602966,30.323439,25.1
-97.603056,30.323574,24.0
-97.603056,30.323574,23.4
-97.603152,30.323714,22.3
-97.603152,30.323714,21.7
-97.603251,30.323857,20.8
-97.603251,30.323857,20.1
-97.603366,30.324004,20.5
-97.603366,30.324004,21.2
-97.603474,30.324147,21.4
-97.603474,30.324147,22.0
-97.603559,30.324265,22.9
-97.603559,30.324265,23.3
-97.603604,30.324386,22.9
-97.603604,30.324386,22.1
-97.603621,30.324503,21.9
-97.603621,30.324503,22.0
-97.603654,30.324608,21.8
-97.603654,30.324608,21.8
-97.603667,30.324714,21.7
-97.603667,30.324714,22.0
-97.603646,30.324824,21.0
-97.603646,30.324824,20.7
-97.603605,30.324928,19.8
-97.603605,30.324928,20.0
-97.603554,30.325028,19.0
-97.603554,30.325028,19.0
-97.603504,30.325126,19.1
-97.603504,30.325126,18.6
-97.603444,30.325218,18.6
-97.603444,30.325218,18.8
-97.603363,30.325288,19.2
-97.603363,30.325288,20.3
-97.603248,30.325332,20.8
-97.603248,30.325332,20.2
-97.603248,30.325332,20.3
-97.603248,30.325332,20.9
-97.602999,30.325395,21.1
-97.602999,30.325395,20.8
-97.602888,30.325425,21.6
-97.602888,30.325425,21.9
-97.602769,30.325446,21.3
-97.602769,30.325446,23.0
-97.602663,30.325419,23.1
-97.602663,30.325419,22.2
-97.602663,30.325419,22.6
-97.602663,30.325419,22.1
-97.602663,30.325419,21.6
-97.602663,30.325419,21.8
-97.602663,30.325419,21.6
-97.602663,30.325419,21.9
-97.602663,30.325419,23.0
-97.602663,30.325419,22.6
-97.602169,30.324956,23.3
-97.602169,30.324956,23.4
-97.602081,30.324848,23.4
-97.602081,30.324848,22.3
-97.602081,30.324848,21.6
-97.602081,30.324848,22.1
-97.602020,30.324562,21.0
-97.602020,30.324562,20.0
-97.602020,30.324562,19.0
-97.602020,30.324562,19.4
-97.602020,30.324250,19.8
-97.602020,30.324250,19.4
-97.602007,30.324098,18.7
-97.602007,30.324098,18.5
-97.602007,30.324098,18.9
-97.602007,30.324098,19.8
-97.601904,30.323832,19.8
-97.601904,30.323832,20.7
-97.601904,30.323832,20.3
-97.601904,30.323832,20.5
-97.601904,30.323832,20.2
-97.601904,30.323832,19.9
-97.601904,30.323832,19.0
-97.601904,30.323832,19.1
-97.601904,30.323832,18.8
-97.601904,30.323832,19.3
-97.601904,30.323832,19.4
-97.601904,30.323832,19.0
-97.601904,30.323832,19.1
-97.601904,30.323832,19.5
-97.602032,30.322979,19.1
-97.602032,30.322979,18.1
-97.602032,30.322979,17.0
-97.602032,30.322979,15.9
-97.602032,30.322979,14.9
-97.602032,30.322979,14.6
-97.602032,30.322979,14.2
-97.602032,30.322979,13.2
-97.602032,30.322979,12.4
-97.602032,30.322979,12.3
-97.602032,30.322979,11.8
-97.602032,30.322979,10.8
-97.602032,30.322979,10.5
-97.602032,30.322979,9.9
-97.602032,30.322979,8.8
-97.602032,30.322979,8.1
-97.602971,30.323192,7.7
-97.602971,30.323192,7.7
-97.602971,30.323192,7.7
-97.602971,30.323192,7.4
-97.602971,30.323192,7.0
-97.602971,30.323192,6.8
-97.602971,30.323192,6.6
-97.602971,30.323192,6.6
-97.602971,30.323192,7.6
-97.602971,30.323192,7.8
-97.602971,30.323192,8.5
-97.602971,30.323192,8.9
-97.602971,30.323192,9.2
-97.602971,30.323192,9.7
-97.602971,30.323192,9.0
-97.602971,30.323192,9.5
-97.602971,30.323192,9.4
-97.602971,30.323192,9.9
-97.602971,30.323192,10.6
-97.602971,30.323192,10.6
-97.602971,30.323192,11.1
-97.602971,30.323192,11.6
-97.602971,30.323192,11.8
-97.602971,30.323192,11.8
-97.602971,30.323192,12.9
-97.602971,30.323192,12.9
-97.602971,30.323192,13.4
-97.602971,30.323192,14.2
-97.602971,30.323192,15.0
-97.602971,30.323192,16.2
-97.602971,30.323192,15.5
-97.602971,30.323192,16.6
-97.602971,30.323192,17.3
-97.602971,30.323192,18.3
-97.602971,30.323192,18.8
-97.602971,30.323192,19.7
-97.602971,30.323192,20.5
-97.602971,30.323192,21.2
-97.602971,30.323192,22.1
-97.602971,30.323192,23.9
-97.602971,30.323192,25.1
-97.602971,30.323192,26.6
-97.602971,30.323192,27.8
-97.602971,30.323192,29.1
-97.602971,30.323192,30.7
-97.602971,30.323192,31.4
-97.602971,30.323192,32.3
-97.602971,30.323192,33.5
-97.602971,30.323192,34.4
-97.602971,30.323192,35.3
-97.602971,30.323192,35.5
-97.602971,30.323192,35.3
-97.602971,30.323192,35.6
-97.602971,30.323192,36.1
-97.602971,30.323192,35.5
-97.602971,30.323192,35.4
-97.602971,30.323192,35.5
-97.602971,30.323192,35.9
-97.602971,30.323192,36.4
-97.602971,30.323192,36.2
-97.602971,30.323192,37.1
-97.602971,30.323192,36.8
-97.602971,30.323192,36.7
-97.602971,30.323192,37.0
-97.602971,30.323192,36.1
-97.602971,30.323192,35.6
-97.602971,30.323192,34.8
-97.602971,30.323192,34.8
-97.602971,30.323192,34.7
-97.602971,30.323192,35.5
-97.602971,30.323192,35.3
-97.602971,30.323192,35.8
-97.602971,30.323192,35.8
-97.602971,30.323192,35.8
-97.602971,30.323192,35.1
-97.602971,30.323192,35.8
-97.602971,30.323192,36.2
-97.602971,30.323192,37.0
-97.602971,30.323192,37.7
-97.602971,30.323192,38.4
-97.602971,30.323192,39.6
-97.602971,30.323192,40.4
-97.602971,30.323192,40.3
-97.602971,30.323192,39.3
-97.602971,30.323192,38.5
-97.602971,30.323192,37.2
-97.602971,30.323192,35.1
-97.602971,30.323192,35.3
-97.602971,30.323192,34.7
-97.602971,30.323192,34.5
-97.602971,30.323192,34.8
-97.602971,30.323192,34.3
-97.602971,30.323192,34.5
-97.602971,30.323192,33.8
-97.602971,30.323192,32.9
-97.602971,30.323192,31.4
-97.602971,30.323192,29.9
-97.602971,30.323192,29.7
-97.602971,30.323192,28.4
-97.602971,30.323192,26.8
-97.602971,30.323192,26.5
-97.602971,30.323192,26.5
-97.602971,30.323192,26.5
-97.602971,30.323192,26.2
-97.602971,30.323192,26.8
-97.602971,30.323192,27.2
-97.602971,30.323192,26.4
-97.602971,30.323192,26.7
-97.602971,30.323192,27.5
-97.602971,30.323192,28.2
-97.602971,30.323192,28.2
-97.602971,30.323192,29.4
-97.602971,30.323192,29.7
-97.602971,30.323192,31.0
-97.602971,30.323192,31.8
-97.602971,30.323192,32.1
-97.602971,30.323192,32.7
-97.602971,30.323192,32.8
-97.602971,30.323192,33.1
-97.602971,30.323192,33.2
-97.602971,30.323192,33.3
-97.602971,30.323192,34.0
-97.602971,30.323192,34.3
-97.602971,30.323192,33.5
-97.602971,30.323192,34.3
-97.602971,30.323192,34.8
-97.602971,30.323192,35.8
-97.602971,30.323192,35.7
-97.602971,30.323192,35.6
-97.602971,30.323192,35.4
-97.602971,30.323192,34.7
-97.602971,30.323192,33.8
-97.602971,30.323192,32.4
-97.602971,30.323192,31.5
-97.602971,30.323192,31.3
-97.602971,30.323192,30.4
-97.602971,30.323192,30.2
-97.602971,30.323192,29.7
-97.602971,30.323192,29.3
-97.602971,30.323192,28.9
-97.602971,30.323192,28.8
-97.602971,30.323192,28.8
-97.602971,30.323192,27.8
-97.602971,30.323192,27.4
-97.602971,30.323192,27.5
-97.602971,30.323192,26.9
-97.602971,30.323192,25.7
-97.602971,30.323192,25.6
-97.602971,30.323192,25.5
-97.602971,30.323192,24.8
-97.602971,30.323192,24.2
-97.602971,30.323192,24.5
-97.602971,30.323192,24.5
-97.602971,30.323192,24.9
-97.602971,30.323192,25.4
-97.602971,30.323192,25.2
-97.602971,30.323192,24.4
-97.602971,30.323192,24.0
-97.602971,30.323192,23.2
-97.602971,30.323192,22.5
-97.602971,30.323192,21.9
-97.602971,30.323192,21.5
-97.602971,30.323192,20.8
-97.602971,30.323192,20.5
-97.602971,30.323192,20.4
-97.602971,30.323192,19.6
-97.602971,30.323192,18.7
-97.602971,30.323192,17.9
-97.602971,30.323192,17.0
-97.602971,30.323192,16.5
-97.602971,30.323192,15.2
-97.602971,30.323192,14.6
-97.602971,30.323192,13.3
-97.602971,30.323192,12.9
-97.602971,30.323192,12.5
-97.602971,30.323192,11.5
-97.602971,30.323192,11.2
-97.602971,30.323192,11.0
-97.602971,30.323192,10.6
-97.602971,30.323192,10.1
-97.602971,30.323192,9.3
-97.602971,30.323192,9.1
-97.602971,30.323192,8.6
-97.602971,30.323192,8.5
-97.602971,30.323192,8.1
-97.602971,30.323192,6.9
-97.602971,30.323192,6.0
-97.602971,30.323192,5.0
-97.602971,30.323192,4.8
-97.602971,30.323192,4.7
-97.602971,30.323192,4.3
-97.602971,30.323192,4.0
-97.602971,30.323192,3.4
-97.602971,30.323192,2.5
-97.602971,30.323192,1.3
-97.602971,30.323192,1.0
-97.602971,30.323192,-0.0
-97.602971,30.323192,-0.3
-97.602971,30.323192,-0.8
-97.602971,30.323192,-1.7
-97.602971,30.323192,-1.9
-97.602971,30.323192,-2.0
-97.602971,30.323192,-2.3
-97.602971,30.323192,-2.8
-97.602971,30.323192,-3.0
-97.602971,30.323192,-2.9
-97.602971,30.323192,-2.7
-97.602971,30.323192,-2.7
-97.602971,30.323192,-2.3
-97.602971,30.323192,-2.7
-97.602971,30.323192,-2.4
-97.602971,30.323192,-2.5
-97.602971,30.323192,-2.5
-97.602971,30.323192,-2.7
-97.602971,30.323192,-2.7
-97.602971,30.323192,-2.6
-97.602971,30.323192,-2.7
-97.602971,30.323192,-2.4
-97.602971,30.323192,-2.6
-97.602971,30.323192,-2.9
-97.602971,30.323192,-2.8
-97.602971,30.323192,-2.5
-97.602971,30.323192,-2.7
-97.602971,30.323192,-2.4
-97.602971,30.323192,-2.6
-97.602971,30.323192,-2.6
-97.602971,30.323192,-2.5
-97.602971,30.323192,-2.8
-97.602971,30.323192,-2.7
-97.602971,30.323192,-2.3
-97.602971,30.323192,-2.7
-97.602971,30.323192,-2.6
-97.602971,30.323192,-2.3
-97.602971,30.323192,-2.5
-97.602971,30.323192,-3.0
-97.602971,30.323192,-2.6
-97.602971,30.323192,-2.7
-97.602971,30.323192,-2.7
-97.602971,30.323192,-2.3
-97.602971,30.323192,-2.5
-97.602971,30.323192,-2.8
-97.602971,30.323192,-2.4
-97.602971,30.323192,-2.7
-97.602971,30.323192,-2.9
-97.602971,30.323192,-2.6
-97.602971,30.323192,-2.6
-97.602971,30.323192,-2.8
-97.602971,30.323192,-3.0
-97.602971,30.323192,-2.9
-97.602971,30.323192,-2.7
-97.602971,30.323192,-3.0
-97.602971,30.323192,-2.7
-97.602971,30.323192,-2.8
-97.602971,30.323192,-2.6
-97.602971,30.323192,-2.8
-97.602971,30.323192,-2.7
-97.602971,30.323192,-2.5
-97.602971,30.323192,-2.9
-97.602971,30.323192,-2.7
-97.602971,30.323192,-2.6
-97.602971,30.323192,-2.6
-97.602971,30.323192,-2.4
-97.602971,30.323192,-2.6
-97.602971,30.323192,-2.6
-97.602971,30.323192,-2.8
-97.602971,30.323192,-2.6
-97.602971,30.323192,-2.7
-97.602971,30.323192,-2.8
-97.602971,30.323192,-2.4
-97.602971,30.323192,-2.3
-97.602971,30.323192,-2.0
-97.602971,30.323192,-1.5
-97.602971,30.323192,-1.6
-97.602971,30.323192,-1.9
-97.602971,30.323192,-1.5
-97.602971,30.323192,-1.5
-97.602971,30.323192,-1.5
-97.602971,30.323192,-1.7
-97.602971,30.323192,-1.5
-97.602971,30.323192,-1.4
-97.602971,30.323192,-1.6
-97.602971,30.323192,-1.6
-97.602971,30.323192,-2.0
-97.602971,30.323192,-1.9
-97.602971,30.323192,-1.6
-97.602971,30.323192,-1.6
-97.602971,30.323192,-1.7
-97.602971,30.323192,-1.8
-97.602971,30.323192,-1.5
-97.602971,30.323192,-1.7
-97.602971,30.323192,-1.6
-97.602971,30.323192,-1.6
-97.602971,30.323192,-2.0
-97.602971,30.323192,-1.7
-97.602971,30.323192,-1.8
-97.602971,30.323192,-1.6
-97.602971,30.323192,-1.7
-97.602971,30.323192,-1.8
-97.602971,30.323192,-1.9
-97.602971,30.323192,-1.9
-97.602971,30.323192,-1.8
-97.602971,30.323192,-1.6
-97.602971,30.323192,-1.5
-97.602971,30.323192,-1.4
-97.602971,30.323192,-1.4
-97.602971,30.323192,-1.1
-97.602971,30.323192,-1.3
-97.602971,30.323192,-1.5
-97.602971,30.323192,-1.6
-97.602971,30.323192,-1.4
-97.602971,30.323192,-1.4
-97.602971,30.323192,-1.4
-97.602971,30.323192,-1.5
-97.602971,30.323192,-1.5
-97.602971,30.323192,-1.6
-97.602971,30.323192,-1.5
</coordinates></LineString></Placemark></Document></kml>
