<?xml version="1.0" encoding="UTF-8"?><kml xmlns="http://www.opengis.net"><Document><Placemark><LineString><altitudeMode>relativeToGround</altitudeMode><coordinates>
-97.603690,30.323745,0.0
-97.603690,30.323745,0.4
-97.603690,30.323744,0.4
-97.603690,30.323744,0.4
-97.603690,30.323743,0.4
-97.603690,30.323743,0.8
-97.603689,30.323743,0.2
-97.603689,30.323743,0.0
-97.603689,30.323743,-0.0
-97.603689,30.323743,0.4
-97.603689,30.323742,0.1
-97.603689,30.323742,0.0
-97.603689,30.323742,0.2
-97.603689,30.323742,-0.2
-97.603689,30.323741,0.1
-97.603689,30.323741,0.1
-97.603690,30.323740,-0.3
-97.603690,30.323740,0.2
-97.603690,30.323739,-0.2
-97.603690,30.323739,-0.1
-97.603689,30.323739,0.1
-97.603689,30.323739,0.3
-97.603689,30.323739,0.2
-97.603689,30.323739,0.9
-97.603689,30.323738,0.2
-97.603689,30.323738,0.7
-97.603689,30.323737,0.3
-97.603689,30.323737,0.4
-97.603689,30.323736,0.0
-97.603689,30.323736,0.4
-97.603689,30.323735,0.4
-97.603689,30.323735,0.9
-97.603689,30.323734,0.3
-97.603689,30.323734,0.5
-97.603689,30.323734,0.8
-97.603689,30.323734,0.6
-97.603688,30.323733,0.6
-97.603688,30.323733,0.7
-97.603688,30.323733,0.4
-97.603688,30.323733,0.8
-97.603688,30.323732,0.9
-97.603688,30.323732,0.1
-97.603688,30.323732,0.6
-97.603688,30.323732,0.6
-97.603687,30.323732,0.4
-97.603687,30.323732,0.5
-97.603688,30.323731,0.5
-97.603688,30.323731,0.5
-97.603688,30.323731,0.8
-97.603688,30.323731,0.7
-97.603687,30.323731,0.7
-97.603687,30.323731,1.2
-97.603687,30.323730,0.4
-97.603687,30.323730,0.6
-97.603688,30.323730,0.6
-97.603688,30.323730,0.4
-97.603688,30.323729,0.3
-97.603688,30.323729,0.7
-97.603688,30.323729,0.5
-97.603688,30.323729,0.6
-97.603688,30.323729,0.1
-97.603688,30.323729,0.3
-97.603688,30.323728,0.1
-97.603688,30.323728,0.1
-97.603688,30.323728,0.2
-97.603688,30.323728,0.9
-97.603687,30.323729,0.6
-97.603687,30.323729,0.6
-97.603687,30.323728,0.2
-97.603687,30.323728,0.9
-97.603687,30.323728,0.5
-97.603687,30.323728,0.5
-97.603687,30.323728,-0.0
-97.603687,30.323728,0.7
-97.603687,30.323728,0.6
-97.603687,30.323728,0.2
-97.603687,30.323727,0.1
-97.603687,30.323727,0.3
-97.603688,30.323727,0.5
-97.603688,30.323727,0.3
-97.603688,30.323726,0.3
-97.603688,30.323726,0.4
-97.603688,30.323726,0.5
-97.603688,30.323726,0.2
-97.603688,30.323726,0.7
-97.603688,30.323726,0.6
-97.603688,30.323725,0.5
-97.603688,30.323725,0.5
-97.603688,30.323725,0.6
-97.603688,30.323725,0.3
-97.603689,30.323724,0.1
-97.603689,30.323724,0.5
-97.603689,30.323724,0.2
-97.603689,30.323724,0.9
-97.603689,30.323724,-0.0
-97.603689,30.323724,0.0
-97.603689,30.323723,0.4
-97.603689,30.323723,0.6
-97.603690,30.323723,0.1
-97.603690,30.323723,0.7
-97.603688,30.323727,0.6
-97.603688,30.323727,1.3
-97.603681,30.323733,0.8
-97.603681,30.323733,0.9
-97.603674,30.323738,0.6
-97.603674,30.323738,1.0
-97.603669,30.323745,0.7
-97.603669,30.323745,1.0
-97.603666,30.323753,0.5
-97.603666,30.323753,0.8
-97.603662,30.323761,0.7
-97.603662,30.323761,0.8
-97.603658,30.323771,0.6
-97.603658,30.323771,0.9
-97.603650,30.323777,0.5
-97.603650,30.323777,0.3
-97.603638,30.323783,0.3
-97.603638,30.323783,0.6
-97.603628,30.323789,0.5
-97.603628,30.323789,-0.1
-97.603624,30.323792,0.1
-97.603624,30.323792,0.1
-97.603623,30.323795,-0.1
-97.603623,30.323795,-0.2
-97.603624,30.323797,0.0
-97.603624,30.323797,0.0
-97.603624,30.323799,-0.1
-97.603624,30.323799,0.0
-97.603621,30.323802,-0.4
-97.603621,30.323802,-0.3
-97.603620,30.323804,-0.6
-97.603620,30.323804,-0.6
-97.603620,30.323806,-0.6
-97.603620,30.323806,-0.1
-97.603620,30.323808,-0.2
-97.603620,30.323808,-0.4
-97.603619,30.323809,-0.0
-97.603619,30.323809,0.1
-97.603619,30.323811,-0.3
-97.603619,30.323811,-0.2
-97.603619,30.323812,-0.4
-97.603619,30.323812,-0.1
-97.603619,30.323813,-0.3
-97.603619,30.323813,0.3
-97.603619,30.323814,-0.0
-97.603619,30.323814,0.3
-97.603619,30.323815,-0.3
-97.603619,30.323815,0.5
-97.603620,30.323815,-0.2
-97.603620,30.323815,0.0
-97.603620,30.323816,0.4
-97.603620,30.323816,0.6
-97.603620,30.323817,-0.1
-97.603620,30.323817,0.0
-97.603620,30.323817,0.2
-97.603620,30.323817,0.4
-97.603621,30.323818,-0.1
-97.603621,30.323818,-0.1
-97.603622,30.323819,0.3
-97.603622,30.323819,0.4
-97.603622,30.323819,0.3
-97.603622,30.323819,0.3
-97.603630,30.323832,0.1
-97.603630,30.323832,0.3
-97.603630,30.323832,0.1
-97.603630,30.323832,-0.1
-97.603637,30.323853,0.4
-97.603637,30.323853,0.4
-97.603639,30.323865,0.7
-97.603639,30.323865,0.4
-97.603639,30.323865,-0.1
-97.603639,30.323865,0.3
-97.603641,30.323893,0.2
-97.603641,30.323893,0.4
-97.603642,30.323908,0.3
-97.603642,30.323908,0.2
-97.603640,30.323918,0.2
-97.603640,30.323918,0.3
-97.603632,30.323922,-0.0
-97.603632,30.323922,0.5
-97.603624,30.323924,0.2
-97.603624,30.323924,0.5
-97.603613,30.323926,0.4
-97.603613,30.323926,0.7
-97.603613,30.323926,0.4
-97.603613,30.323926,0.6
-97.603588,30.323934,0.2
-97.603588,30.323934,0.4
-97.603577,30.323938,0.1
-97.603577,30.323938,0.4
-97.603570,30.323941,0.5
-97.603570,30.323941,0.6
-97.603566,30.323942,0.4
-97.603566,30.323942,0.5
-97.603566,30.323942,0.2
-97.603566,30.323942,0.6
-97.603566,30.323941,0.1
-97.603566,30.323941,0.4
-97.603566,30.323941,0.3
-97.603566,30.323941,0.3
-97.603567,30.323940,0.7
-97.603567,30.323940,0.5
-97.603567,30.323940,0.5
-97.603567,30.323940,0.3
-97.603567,30.323940,0.1
-97.603567,30.323940,0.1
-97.603567,30.323941,-0.0
-97.603567,30.323941,0.1
-97.603567,30.323941,0.1
-97.603567,30.323941,0.2
-97.603567,30.323941,0.3
-97.603567,30.323941,0.2
-97.603568,30.323941,0.2
-97.603568,30.323941,0.3
-97.603568,30.323942,0.5
-97.603568,30.323942,0.2
-97.603568,30.323942,-0.1
-97.603568,30.323942,0.3
-97.603568,30.323942,0.0
-97.603568,30.323942,0.2
-97.603569,30.323942,-0.1
-97.603569,30.323942,0.2
-97.603570,30.323942,0.2
-97.603570,30.323942,0.3
-97.603568,30.323943,0.1
-97.603568,30.323943,0.4
-97.603561,30.323944,-0.0
-97.603561,30.323944,0.2
-97.603549,30.323949,-0.1
-97.603549,30.323949,0.3
-97.603532,30.323956,-0.0
-97.603532,30.323956,0.3
-97.603513,30.323964,0.3
-97.603513,30.323964,0.2
-97.603493,30.323971,0.1
-97.603493,30.323971,0.1
-97.603471,30.323978,0.1
-97.603471,30.323978,0.1
-97.603449,30.323983,-0.2
-97.603449,30.323983,-0.2
-97.603427,30.323987,-0.1
-97.603427,30.323987,-0.1
-97.603407,30.323993,0.1
-97.603407,30.323993,0.0
-97.603388,30.324000,-0.1
-97.603388,30.324000,0.2
-97.603373,30.324007,-0.0
-97.603373,30.324007,0.1
-97.603358,30.324015,-0.1
-97.603358,30.324015,0.3
-97.603348,30.324027,0.3
-97.603348,30.324027,0.1
-97.603346,30.324044,0.7
-97.603346,30.324044,0.5
-97.603346,30.324044,0.3
-97.603346,30.324044,0.3
-97.603370,30.324075,0.6
-97.603370,30.324075,0.5
-97.603385,30.324091,0.7
-97.603385,30.324091,0.6
-97.603398,30.324108,0.2
-97.603398,30.324108,0.6
-97.603413,30.324126,0.3
-97.603413,30.324126,0.2
-97.603422,30.324148,0.3
-97.603422,30.324148,0.8
-97.603422,30.324148,0.3
-97.603422,30.324148,0.4
-97.603409,30.324172,0.6
-97.603409,30.324172,0.7
-97.603396,30.324171,0.7
-97.603396,30.324171,0.4
-97.603390,30.324164,0.4
-97.603390,30.324164,0.5
-97.603387,30.324156,0.4
-97.603387,30.324156,0.6
-97.603386,30.324148,0.1
-97.603386,30.324148,0.9
-97.603386,30.324148,0.6
-97.603386,30.324148,0.9
-97.603382,30.324127,0.3
-97.603382,30.324127,0.9
-97.603374,30.324113,0.8
-97.603374,30.324113,0.8
-97.603369,30.324094,1.0
-97.603369,30.324094,1.6
-97.603351,30.324061,1.3
-97.603351,30.324061,1.5
-97.603340,30.323998,2.2
-97.603340,30.323998,3.5
-97.603327,30.323899,4.8
-97.603327,30.323899,6.6
-97.603318,30.323784,7.4
-97.603318,30.323784,8.7
-97.603296,30.323664,10.0
-97.603296,30.323664,12.7
-97.603296,30.323664,14.2
-97.603119,30.323499,14.7
-97.603119,30.323499,16.8
-97.602991,30.323483,17.5
-97.602991,30.323483,18.9
-97.602862,30.323490,18.8
-97.602862,30.323490,19.3
-97.602862,30.323490,19.4
-97.602735,30.323519,19.3
-97.602601,30.323576,18.2
-97.602601,30.323576,17.0
-97.602459,30.323662,16.0
-97.602459,30.323662,16.4
-97.602353,30.323801,16.7
-97.602353,30.323801,17.6
-97.602310,30.323959,18.2
-97.602310,30.323959,18.8
-97.602317,30.324115,19.0
-97.602317,30.324115,19.2
-97.602359,30.324270,19.0
-97.602359,30.324270,19.0
-97.602418,30.324420,18.8
-97.602418,30.324420,18.1
-97.602418,30.324420,18.1
-97.602418,30.324420,18.4
-97.602586,30.324712,18.7
-97.602586,30.324712,17.9
-97.602683,30.324854,18.3
-97.602683,30.324854,18.6
-97.602784,30.324987,19.2
-97.602784,30.324987,19.8
-97.602893,30.325105,20.6
-97.602893,30.325105,20.0
-97.603021,30.325208,20.1
-97.603021,30.325208,20.8
-97.603159,30.325280,21.8
-97.603159,30.325280,22.8
-97.603289,30.325315,23.5
-97.603289,30.325315,24.3
-97.603410,30.325326,24.9
-97.603410,30.325326,25.9
-97.603525,30.325319,26.2
-97.603525,30.325319,27.3
-97.603630,30.325296,27.8
-97.603630,30.325296,27.8
-97.603718,30.325259,28.0
-97.603718,30.325259,27.7
-97.603782,30.325206,26.5
-97.603782,30.325206,25.2
-97.603786,30.325122,23.5
-97.603786,30.325122,22.4
-97.603739,30.325026,20.2
-97.603739,30.325026,20.4
-97.603680,30.324928,20.0
-97.603680,30.324928,19.7
-97.603623,30.324839,20.2
-97.603623,30.324839,19.9
-97.603573,30.324759,20.5
-97.603573,30.324759,20.5
-97.603544,30.324672,20.4
-97.603544,30.324672,18.4
-97.603528,30.324579,18.1
-97.603528,30.324579,17.3
-97.603499,30.324475,17.1
-97.603499,30.324475,16.5
-97.603445,30.324375,14.5
-97.603445,30.324375,13.7
-97.603393,30.324272,12.6
-97.603393,30.324272,11.3
-97.603367,30.324167,12.2
-97.603367,30.324167,12.0
-97.603368,30.324069,13.3
-97.603368,30.324069,12.5
-97.603390,30.323980,12.9
-97.603390,30.323980,13.5
-97.603419,30.323891,13.2
-97.603419,30.323891,12.9
-97.603405,30.323798,12.4
-97.603405,30.323798,13.2
-97.603312,30.323746,13.9
-97.603312,30.323746,14.1
-97.603201,30.323719,15.0
-97.603201,30.323719,15.0
-97.603099,30.323683,15.1
-97.603099,30.323683,15.9
-97.603027,30.323613,17.3
-97.603027,30.323613,18.7
-97.603005,30.323533,18.8
-97.603005,30.323533,19.7
-97.603014,30.323453,19.9
-97.603014,30.323453,19.6
-97.603020,30.323366,19.4
-97.603020,30.323366,19.1
-97.602975,30.323286,20.0
-97.602975,30.323286,21.4
-97.602888,30.323246,22.4
-97.602888,30.323246,23.0
-97.602770,30.323261,23.3
-97.602770,30.323261,23.1
-97.602653,30.323332,22.8
-97.602653,30.323332,21.5
-97.602527,30.323418,20.5
-97.602527,30.323418,19.8
-97.602389,30.323509,20.4
-97.602389,30.323509,21.6
-97.602305,30.323643,23.1
-97.602305,30.323643,23.6
-97.602268,30.323799,23.1
-97.602268,30.323799,22.4
-97.602281,30.323963,21.0
-97.602281,30.323963,19.6
-97.602329,30.324132,18.4
-97.602329,30.324132,19.7
-97.602380,30.324301,20.4
-97.602380,30.324301,21.7
-97.602430,30.324455,22.5
-97.602430,30.324455,22.8
-97.602487,30.324595,23.2
-97.602487,30.324595,23.2
-97.602559,30.324722,22.7
-97.602559,30.324722,22.7
-97.602650,30.324842,21.8
-97.602650,30.324842,21.2
-97.602755,30.324963,21.7
-97.602755,30.324963,22.5
-97.602863,30.325080,22.9
-97.602863,30.325080,23.4
-97.602979,30.325182,23.8
-97.602979,30.325182,24.9
-97.603109,30.325248,25.4
-97.603109,30.325248,26.1
-97.603238,30.325276,26.5
-97.603238,30.325276,26.8
-97.603351,30.325264,27.0
-97.603351,30.325264,26.5
-97.603459,30.325242,26.2
-97.603459,30.325242,26.2
-97.603561,30.325210,26.1
-97.603561,30.325210,25.4
-97.603645,30.325150,25.2
-97.603645,30.325150,25.0
-97.603697,30.325063,24.7
-97.603697,30.325063,24.8
-97.603714,30.324956,23.8
-97.603714,30.324956,23.3
-97.603701,30.324837,23.0
-97.603701,30.324837,22.3
-97.603655,30.324717,21.7
-97.603655,30.324717,21.0
-97.603588,30.324605,20.7
-97.603588,30.324605,19.8
-97.603514,30.324500,19.9
-97.603514,30.324500,19.3
-97.603442,30.324402,20.9
-97.603442,30.324402,20.5
-97.603382,30.324307,21.8
-97.603382,30.324307,21.6
-97.603350,30.324211,21.0
-97.603350,30.324211,19.7
-97.603350,30.324108,18.4
-97.603350,30.324108,17.9
-97.603377,30.323999,17.7
-97.603377,30.323999,17.5
-97.603419,30.323898,18.0
-97.603419,30.323898,19.7
-97.603427,30.323815,20.8
-97.603427,30.323815,22.1
-97.603370,30.323756,22.3
-97.603370,30.323756,22.6
-97.603261,30.323728,20.9
-97.603261,30.323728,19.6
-97.603141,30.323701,18.4
-97.603141,30.323701,17.0
-97.603031,30.323639,16.1
-97.603031,30.323639,15.4
-97.602896,30.323591,15.8
-97.602896,30.323591,17.6
-97.602767,30.323621,19.7
-97.602767,30.323621,21.1
-97.602682,30.323715,22.1
-97.602682,30.323715,22.5
-97.602625,30.323835,21.9
-97.602625,30.323835,21.7
-97.602585,30.323971,21.1
-97.602585,30.323971,22.0
-97.602572,30.324117,22.6
-97.602572,30.324117,23.4
-97.602588,30.324256,24.4
-97.602588,30.324256,25.5
-97.602625,30.324379,26.5
-97.602625,30.324379,26.9
-97.602675,30.324488,28.1
-97.602675,30.324488,28.5
-97.602739,30.324592,28.6
-97.602739,30.324592,29.7
-97.602829,30.324689,28.9
-97.602829,30.324689,29.0
-97.602929,30.324796,28.6
-97.602929,30.324796,28.6
-97.603039,30.324906,28.9
-97.603039,30.324906,29.0
-97.603171,30.324976,28.9
-97.603171,30.324976,28.5
-97.603291,30.324962,27.8
-97.603291,30.324962,26.7
-97.603344,30.324888,26.3
-97.603344,30.324888,24.5
-97.603306,30.324788,25.2
-97.603306,30.324788,26.4
-97.603260,30.324688,26.9
-97.603260,30.324688,27.5
-97.603217,30.324589,28.4
-97.603217,30.324589,28.9
-97.603173,30.324492,28.7
-97.603173,30.324492,29.1
-97.603129,30.324388,29.9
-97.603129,30.324388,31.3
-97.603082,30.324272,31.5
-97.603082,30.324272,33.3
-97.603028,30.324151,35.8
-97.603028,30.324151,40.4
-97.602992,30.324063,45.6
-97.602992,30.324063,50.6
-97.602988,30.324064,53.9
-97.602988,30.324064,55.9
-97.603003,30.324121,56.1
-97.603003,30.324121,54.6
-97.603024,30.324196,51.5
-97.603024,30.324196,46.2
-97.602994,30.324261,39.8
-97.602994,30.324261,36.1
-97.602861,30.324263,35.9
-97.602861,30.324263,36.7
-97.602695,30.324271,38.6
-97.602695,30.324271,40.8
-97.602569,30.324348,42.1
-97.602569,30.324348,43.3
-97.602529,30.324469,43.1
-97.602529,30.324469,42.0
-97.602558,30.324608,41.5
-97.602558,30.324608,40.4
-97.602621,30.324766,39.0
-97.602621,30.324766,37.7
-97.602689,30.324935,36.3
-97.602689,30.324935,35.6
-97.602773,30.325105,35.3
-97.602773,30.325105,35.7
-97.602884,30.325252,37.5
-97.602884,30.325252,39.4
-97.602884,30.325252,42.7
-97.602884,30.325252,43.6
-97.603107,30.325416,44.4
-97.603107,30.325416,44.2
-97.603215,30.325440,43.4
-97.603215,30.325440,41.6
-97.603296,30.325409,40.9
-97.603296,30.325409,39.5
-97.603317,30.325330,38.8
-97.603317,30.325330,38.1
-97.603274,30.325238,38.9
-97.603274,30.325238,40.6
-97.603188,30.325187,42.3
-97.603188,30.325187,43.4
-97.603096,30.325147,44.2
-97.603096,30.325147,44.8
-97.603004,30.325113,45.1
-97.603004,30.325113,45.5
-97.602905,30.325076,45.9
-97.602905,30.325076,46.9
-97.602809,30.325030,47.0
-97.602809,30.325030,47.7
-97.602750,30.324958,46.3
-97.602750,30.324958,46.2
-97.602757,30.324870,42.5
-97.602757,30.324870,39.4
-97.602860,30.324794,35.7
-97.602860,30.324794,33.8
-97.603017,30.324757,31.4
-97.603017,30.324757,28.3
-97.603198,30.324746,29.7
-97.603198,30.324746,30.7
-97.603328,30.324715,32.5
-97.603328,30.324715,34.1
-97.603383,30.324672,35.2
-97.603383,30.324672,35.9
-97.603375,30.324624,35.2
-97.603375,30.324624,34.5
-97.603332,30.324585,33.5
-97.603332,30.324585,32.5
-97.603285,30.324541,32.0
-97.603285,30.324541,30.7
-97.603261,30.324474,28.8
-97.603261,30.324474,27.9
-97.603251,30.324386,27.1
-97.603251,30.324386,25.6
-97.603235,30.324288,25.1
-97.603235,30.324288,25.2
-97.603208,30.324193,25.0
-97.603208,30.324193,25.1
-97.603177,30.324105,25.0
-97.603177,30.324105,25.1
-97.603139,30.324024,25.5
-97.603139,30.324024,25.6
-97.603097,30.323941,25.3
-97.603097,30.323941,25.4
-97.603067,30.323853,24.6
-97.603067,30.323853,24.3
-97.603054,30.323757,23.5
-97.603054,30.323757,24.0
-97.603044,30.323660,24.7
-97.603044,30.323660,25.8
-97.603008,30.323578,26.3
-97.603008,30.323578,26.6
-97.602938,30.323512,27.4
-97.602938,30.323512,29.0
-97.602841,30.323473,30.1
-97.602841,30.323473,30.9
-97.602725,30.323467,30.7
-97.602725,30.323467,30.6
-97.602588,30.323494,30.2
-97.602588,30.323494,29.4
-97.602451,30.323561,29.3
-97.602451,30.323561,29.7
-97.602323,30.323662,29.9
-97.602323,30.323662,29.9
-97.602224,30.323795,30.1
-97.602224,30.323795,30.2
-97.602168,30.323953,29.7
-97.602168,30.323953,30.4
-97.602164,30.324119,30.4
-97.602164,30.324119,29.7
-97.602188,30.324282,30.2
-97.602188,30.324282,29.3
-97.602221,30.324446,29.2
-97.602221,30.324446,28.7
-97.602263,30.324609,27.8
-97.602263,30.324609,28.0
-97.602316,30.324769,28.9
-97.602316,30.324769,28.6
-97.602379,30.324915,28.5
-97.602379,30.324915,28.6
-97.602463,30.325046,29.4
-97.602463,30.325046,29.3
-97.602569,30.325152,30.0
-97.602569,30.325152,30.1
-97.602687,30.325233,30.2
-97.602687,30.325233,29.8
-97.602812,30.325299,29.6
-97.602812,30.325299,29.3
-97.602946,30.325342,28.5
-97.602946,30.325342,28.1
-97.603079,30.325344,27.4
-97.603079,30.325344,27.1
-97.603206,30.325326,27.2
-97.603206,30.325326,27.2
-97.603327,30.325304,27.2
-97.603327,30.325304,29.0
-97.603441,30.325280,29.3
-97.603441,30.325280,30.0
-97.603544,30.325254,29.7
-97.603544,30.325254,30.3
-97.603623,30.325212,29.8
-97.603623,30.325212,28.7
-97.603657,30.325144,27.9
-97.603657,30.325144,27.4
-97.603643,30.325066,26.5
-97.603643,30.325066,25.2
-97.603630,30.324986,24.8
-97.603630,30.324986,24.7
-97.603614,30.324905,24.9
-97.603614,30.324905,24.7
-97.603578,30.324829,24.5
-97.603578,30.324829,23.9
-97.603539,30.324751,23.7
-97.603539,30.324751,23.3
-97.603503,30.324668,22.3
-97.603503,30.324668,21.7
-97.603475,30.324576,20.6
-97.603475,30.324576,19.7
-97.603463,30.324473,18.0
-97.603463,30.324473,17.0
-97.603464,30.324356,15.7
-97.603464,30.324356,14.3
-97.603441,30.324233,13.2
-97.603441,30.324233,12.0
-97.603392,30.324111,12.2
-97.603392,30.324111,11.3
-97.603333,30.323998,12.1
-97.603333,30.323998,12.1
-97.603263,30.323903,13.5
-97.603263,30.323903,14.5
-97.603185,30.323826,15.1
-97.603185,30.323826,15.1
-97.603118,30.323748,16.0
-97.603118,30.323748,15.9
-97.603065,30.323666,14.8
-97.603065,30.323666,15.2
-97.603008,30.323584,15.7
-97.603008,30.323584,17.8
-97.602944,30.323527,19.8
-97.602944,30.323527,22.6
-97.602866,30.323504,23.6
-97.602866,30.323504,24.1
-97.602760,30.323506,24.0
-97.602760,30.323506,23.6
-97.602627,30.323548,22.8
-97.602627,30.323548,22.7
-97.602487,30.323625,22.5
-97.602487,30.323625,22.1
-97.602361,30.323740,22.6
-97.602361,30.323740,23.3
-97.602282,30.323892,23.6
-97.602282,30.323892,24.1
-97.602274,30.324055,24.5
-97.602274,30.324055,24.1
-97.602310,30.324216,24.5
-97.602310,30.324216,24.8
-97.602347,30.324383,24.4
-97.602347,30.324383,24.0
-97.602373,30.324556,24.8
-97.602373,30.324556,25.4
-97.602414,30.324724,26.1
-97.602414,30.324724,26.0
-97.602476,30.324879,26.7
-97.602476,30.324879,26.8
-97.602543,30.325024,27.0
-97.602543,30.325024,27.2
-97.602611,30.325166,28.0
-97.602611,30.325166,27.8
-97.602695,30.325301,27.8
-97.602695,30.325301,27.9
-97.602809,30.325407,28.8
-97.602809,30.325407,29.1
-97.602941,30.325472,29.5
-97.602941,30.325472,30.7
-97.603073,30.325494,30.7
-97.603073,30.325494,31.1
-97.603203,30.325492,30.4
-97.603203,30.325492,30.1
-97.603337,30.325479,29.8
-97.603337,30.325479,29.8
-97.603469,30.325457,29.2
-97.603469,30.325457,29.2
-97.603591,30.325429,29.7
-97.603591,30.325429,29.5
-97.603697,30.325386,29.6
-97.603697,30.325386,29.0
-97.603781,30.325321,29.2
-97.603781,30.325321,29.1
-97.603838,30.325239,29.4
-97.603838,30.325239,29.8
-97.603845,30.325143,29.0
-97.603845,30.325143,27.7
-97.603799,30.325046,26.0
-97.603799,30.325046,23.6
-97.603721,30.324950,20.3
-97.603721,30.324950,17.5
-97.603645,30.324839,14.2
-97.603645,30.324839,11.2
-97.603575,30.324719,8.2
-97.603575,30.324719,7.4
-97.603506,30.324593,6.7
-97.603506,30.324593,8.3
-97.603456,30.324487,8.8
-97.603456,30.324487,9.2
-97.603419,30.324394,10.1
-97.603419,30.324394,10.9
-97.603399,30.324311,12.6
-97.603399,30.324311,13.8
-97.603385,30.324241,15.1
-97.603385,30.324241,15.9
-97.603364,30.324161,18.0
-97.603364,30.324161,19.6
-97.603334,30.324080,21.9
-97.603334,30.324080,23.0
-97.603290,30.324002,25.0
-97.603290,30.324002,26.1
-97.603227,30.323929,28.1
-97.603227,30.323929,29.8
-97.603150,30.323867,31.9
-97.603150,30.323867,33.6
-97.603068,30.323833,36.2
-97.603068,30.323833,38.5
-97.602972,30.323837,39.3
-97.602972,30.323837,40.5
-97.602860,30.323873,39.7
-97.602860,30.323873,38.8
-97.602728,30.323885,36.7
-97.602728,30.323885,35.4
-97.602569,30.323886,36.2
-97.602569,30.323886,38.6
-97.602413,30.323942,41.1
-97.602413,30.323942,44.7
-97.602321,30.324052,47.4
-97.602321,30.324052,48.5
-97.602295,30.324184,49.2
-97.602295,30.324184,48.6
-97.602312,30.324323,48.0
-97.602312,30.324323,46.6
-97.602312,30.324323,44.4
-97.602312,30.324323,42.8
-97.602451,30.324609,41.2
-97.602451,30.324609,40.3
-97.602561,30.324749,40.0
-97.602561,30.324749,39.8
-97.602683,30.324876,38.8
-97.602683,30.324876,37.7
-97.602819,30.324980,36.9
-97.602819,30.324980,35.3
-97.602966,30.325049,33.5
-97.602966,30.325049,32.1
-97.603114,30.325071,30.6
-97.603114,30.325071,29.2
-97.603246,30.325046,28.1
-97.603246,30.325046,27.4
-97.603363,30.324991,27.3
-97.603363,30.324991,26.5
-97.603473,30.324933,28.0
-97.603473,30.324933,27.5
-97.603551,30.324868,29.2
-97.603551,30.324868,29.1
-97.603591,30.324793,29.3
-97.603591,30.324793,28.4
-97.603594,30.324715,28.4
-97.603594,30.324715,28.1
-97.603563,30.324643,27.9
-97.603563,30.324643,26.9
-97.603522,30.324576,26.0
-97.603522,30.324576,25.7
-97.603497,30.324506,25.3
-97.603497,30.324506,24.9
-97.603488,30.324435,25.3
-97.603488,30.324435,25.3
-97.603464,30.324366,24.9
-97.603464,30.324366,24.0
-97.603431,30.324290,23.5
-97.603431,30.324290,22.1
-97.603394,30.324205,21.2
-97.603394,30.324205,19.8
-97.603343,30.324111,19.5
-97.603343,30.324111,19.8
-97.603277,30.324024,20.9
-97.603277,30.324024,22.2
-97.603213,30.323959,23.0
-97.603213,30.323959,23.7
-97.603177,30.323902,23.4
-97.603177,30.323902,22.6
-97.603173,30.323841,21.5
-97.603173,30.323841,20.8
-97.603175,30.323768,21.1
-97.603175,30.323768,21.6
-97.603155,30.323693,22.1
-97.603155,30.323693,21.9
-97.603131,30.323619,23.0
-97.603131,30.323619,22.8
-97.603105,30.323546,23.5
-97.603105,30.323546,23.6
-97.603064,30.323478,23.8
-97.603064,30.323478,23.9
-97.603009,30.323411,23.6
-97.603009,30.323411,23.3
-97.602945,30.323341,23.0
-97.602945,30.323341,23.3
-97.602862,30.323273,24.6
-97.602862,30.323273,25.9
-97.602769,30.323225,26.6
-97.602769,30.323225,26.4
-97.602662,30.323196,27.0
-97.602662,30.323196,27.1
-97.602548,30.323193,27.8
-97.602548,30.323193,27.9
-97.602433,30.323222,28.2
-97.602433,30.323222,27.7
-97.602321,30.323287,27.8
-97.602321,30.323287,27.3
-97.602218,30.323377,26.9
-97.602218,30.323377,27.4
-97.602128,30.323482,27.8
-97.602128,30.323482,28.5
-97.602055,30.323587,29.4
-97.602055,30.323587,29.9
-97.602001,30.323699,30.4
-97.602001,30.323699,31.7
-97.601973,30.323816,32.1
-97.601973,30.323816,33.3
-97.601972,30.323930,34.2
-97.601972,30.323930,34.7
-97.601997,30.324041,34.8
-97.601997,30.324041,34.7
-97.602053,30.324160,33.7
-97.602053,30.324160,32.9
-97.602130,30.324280,32.0
-97.602130,30.324280,31.6
-97.602197,30.324410,31.7
-97.602197,30.324410,32.0
-97.602239,30.324551,32.4
-97.602239,30.324551,33.0
-97.602268,30.324691,34.4
-97.602268,30.324691,34.6
-97.602286,30.324823,35.1
-97.602286,30.324823,35.4
-97.602304,30.324955,35.3
-97.602304,30.324955,35.3
-97.602332,30.325093,35.2
-97.602332,30.325093,36.1
-97.602374,30.325229,36.8
-97.602374,30.325229,37.7
-97.602431,30.325351,38.2
-97.602431,30.325351,39.4
-97.602499,30.325459,39.8
-97.602499,30.325459,39.5
-97.602583,30.325556,39.2
-97.602583,30.325556,38.5
-97.602693,30.325631,38.0
-97.602693,30.325631,37.6
-97.602810,30.325656,36.8
-97.602810,30.325656,36.8
-97.602907,30.325632,36.2
-97.602907,30.325632,35.5
-97.602990,30.325588,35.3
-97.602990,30.325588,34.8
-97.603081,30.325547,34.2
-97.603081,30.325547,34.2
-97.603187,30.325519,34.2
-97.603187,30.325519,33.7
-97.603187,30.325519,34.5
-97.603187,30.325519,34.3
-97.603187,30.325519,35.2
-97.603187,30.325519,35.4
-97.603464,30.325426,36.2
-97.603464,30.325426,35.6
-97.603525,30.325389,35.7
-97.603525,30.325389,34.4
-97.603525,30.325389,34.0
-97.603525,30.325389,33.7
-97.603525,30.325389,32.1
-97.603525,30.325389,31.8
-97.603525,30.325389,29.3
-97.603525,30.325389,28.7
-97.603525,30.325389,28.8
-97.603525,30.325389,27.8
-97.603525,30.325389,27.3
-97.603525,30.325389,26.1
-97.603525,30.325389,25.7
-97.603525,30.325389,25.9
-97.603525,30.325389,25.1
-97.603525,30.325389,24.2
-97.603525,30.325389,24.4
-97.603525,30.325389,24.7
-97.603525,30.325389,24.3
-97.603525,30.325389,24.1
-97.603503,30.324601,23.3
-97.603503,30.324601,23.6
-97.603503,30.324601,23.6
-97.603503,30.324601,24.1
-97.603432,30.324473,23.9
-97.603432,30.324473,23.5
-97.603383,30.324421,22.6
-97.603383,30.324421,21.3
-97.603336,30.324362,20.2
-97.603336,30.324362,19.8
-97.603303,30.324293,19.3
-97.603303,30.324293,18.8
-97.603303,30.324217,18.5
-97.603303,30.324217,17.0
-97.603320,30.324139,17.3
-97.603320,30.324139,16.0
-97.603314,30.324059,15.7
-97.603314,30.324059,15.6
-97.603248,30.323993,17.3
-97.603248,30.323993,18.8
-97.603159,30.323960,20.4
-97.603159,30.323960,21.2
-97.603102,30.323933,21.4
-97.603102,30.323933,21.7
-97.603077,30.323890,21.4
-97.603077,30.323890,21.4
-97.603053,30.323836,21.6
-97.603053,30.323836,23.2
-97.603010,30.323790,23.1
-97.603010,30.323790,24.2
-97.602964,30.323747,23.5
-97.602964,30.323747,23.3
-97.602948,30.323694,23.4
-97.602948,30.323694,24.1
-97.602936,30.323632,25.1
-97.602936,30.323632,26.3
-97.602897,30.323572,26.0
-97.602897,30.323572,26.5
-97.602820,30.323526,27.6
-97.602820,30.323526,27.6
-97.602820,30.323526,28.1
-97.602820,30.323526,28.2
-97.602577,30.323542,27.7
-97.602577,30.323542,27.2
-97.602430,30.323603,26.8
-97.602430,30.323603,26.0
-97.602275,30.323695,26.3
-97.602275,30.323695,27.5
-97.602165,30.323833,28.8
-97.602165,30.323833,30.1
-97.602137,30.323998,31.1
-97.602137,30.323998,30.0
-97.602169,30.324162,28.4
-97.602169,30.324162,26.8
-97.602251,30.324320,25.5
-97.602251,30.324320,24.1
-97.602374,30.324462,24.0
-97.602374,30.324462,24.2
-97.602511,30.324581,23.2
-97.602511,30.324581,23.0
-97.602649,30.324697,22.3
-97.602649,30.324697,21.1
-97.602757,30.324842,20.5
-97.602757,30.324842,20.6
-97.602757,30.324842,22.8
-97.602757,30.324842,24.0
-97.602846,30.325181,24.7
-97.602846,30.325181,24.9
-97.602901,30.325330,25.5
-97.602901,30.325330,25.4
-97.603001,30.325453,23.6
-97.603001,30.325453,22.2
-97.603134,30.325537,21.6
-97.603134,30.325537,21.7
-97.603270,30.325572,22.1
-97.603270,30.325572,22.7
-97.603399,30.325591,22.8
-97.603399,30.325591,24.1
-97.603513,30.325603,24.9
-97.603513,30.325603,25.5
-97.603613,30.325599,25.5
-97.603613,30.325599,25.5
-97.603695,30.325565,25.8
-97.603695,30.325565,25.6
-97.603773,30.325511,24.8
-97.603773,30.325511,23.7
-97.603843,30.325452,22.4
-97.603843,30.325452,20.6
-97.603890,30.325384,18.7
-97.603890,30.325384,17.4
-97.603866,30.325309,15.2
-97.603866,30.325309,12.5
-97.603823,30.325241,10.6
-97.603823,30.325241,10.0
-97.603822,30.325164,10.4
-97.603822,30.325164,10.9
-97.603825,30.325103,10.7
-97.603825,30.325103,8.9
-97.603825,30.325103,7.7
-97.603825,30.325103,7.0
-97.603691,30.324974,8.7
-97.603691,30.324974,11.2
-97.603594,30.324919,13.1
-97.603594,30.324919,13.5
-97.603512,30.324876,14.3
-97.603512,30.324876,15.1
-97.603512,30.324876,15.1
-97.603512,30.324876,14.7
-97.603389,30.324769,14.8
-97.603389,30.324769,15.1
-97.603317,30.324699,16.1
-97.603317,30.324699,16.6
-97.603224,30.324645,18.0
-97.603224,30.324645,18.8
-97.603118,30.324618,19.5
-97.603118,30.324618,19.4
-97.603118,30.324618,19.3
-97.603118,30.324618,19.9
-97.602883,30.324638,20.0
-97.602883,30.324638,20.1
-97.602883,30.324638,20.7
-97.602883,30.324638,20.8
-97.602671,30.324849,20.7
-97.602671,30.324849,20.6
-97.602671,30.324849,20.0
-97.602671,30.324849,19.7
-97.602798,30.325099,19.4
-97.602798,30.325099,18.7
-97.602798,30.325099,18.0
-97.602798,30.325099,17.1
-97.602798,30.325099,17.0
-97.602798,30.325099,17.3
-97.603184,30.325166,17.0
-97.603184,30.325166,17.0
-97.603317,30.325180,16.8
-97.603317,30.325180,16.6
-97.603450,30.325192,15.8
-97.603450,30.325192,16.1
-97.603582,30.325197,14.6
-97.603582,30.325197,14.4
-97.603582,30.325197,13.5
-97.603582,30.325197,13.8
-97.603582,30.325197,13.1
-97.603582,30.325197,12.5
-97.603846,30.325049,12.3
-97.603846,30.325049,12.0
-97.603846,30.325049,12.3
-97.603846,30.325049,12.3
-97.603846,30.325049,11.9
-97.603846,30.325049,11.0
-97.603675,30.324860,9.4
-97.603675,30.324860,8.4
-97.603675,30.324860,8.1
-97.603675,30.324860,7.9
-97.603675,30.324860,7.1
-97.603675,30.324860,6.0
-97.603675,30.324860,5.1
-97.603675,30.324860,4.7
-97.603535,30.324598,4.0
-97.603535,30.324598,3.3
-97.603535,30.324598,2.7
-97.603535,30.324598,1.8
-97.603535,30.324598,1.9
-97.603535,30.324598,0.8
-97.603504,30.324434,0.3
-97.603504,30.324434,-0.2
-97.603504,30.324434,0.1
-97.603504,30.324434,0.6
-97.603480,30.324334,1.3
-97.603480,30.324334,2.0
-97.603439,30.324304,2.9
-97.603439,30.324304,4.0
-97.603439,30.324304,5.0
-97.603439,30.324304,5.1
-97.603439,30.324304,4.4
-97.603439,30.324304,4.4
-97.603439,30.324304,4.9
-97.603439,30.324304,6.2
-97.603168,30.324520,7.3
-97.603168,30.324520,7.6
-97.603114,30.324627,7.8
-97.603114,30.324627,7.6
-97.603114,30.324627,7.7
-97.603114,30.324627,8.5
-97.603114,30.324627,9.6
-97.603114,30.324627,9.9
-97.603114,30.324627,9.8
-97.603114,30.324627,9.1
-97.603114,30.324627,8.5
-97.603114,30.324627,8.0
-97.603114,30.324627,7.5
-97.603114,30.324627,7.0
-97.603114,30.324627,8.2
-97.603114,30.324627,9.4
-97.603114,30.324627,11.5
-97.603114,30.324627,12.9
-97.603114,30.324627,14.2
-97.603114,30.324627,15.1
-97.603114,30.324627,16.0
-97.603114,30.324627,15.9
-97.603114,30.324627,16.7
-97.603114,30.324627,17.1
-97.603114,30.324627,17.5
-97.603114,30.324627,17.1
-97.603114,30.324627,15.5
-97.603114,30.324627,14.7
-97.603114,30.324627,13.7
-97.603114,30.324627,12.1
-97.603114,30.324627,10.2
-97.603114,30.324627,8.3
-97.603114,30.324627,5.6
-97.603114,30.324627,4.3
-97.603114,30.324627,3.1
-97.603114,30.324627,2.7
-97.603114,30.324627,3.2
-97.603114,30.324627,3.4
-97.603114,30.324627,3.2
-97.603114,30.324627,3.0
-97.603114,30.324627,3.6
-97.603114,30.324627,3.2
-97.603114,30.324627,2.8
-97.603114,30.324627,2.5
-97.603114,30.324627,2.7
-97.603114,30.324627,1.8
-97.603114,30.324627,0.5
-97.603114,30.324627,0.4
-97.603114,30.324627,0.5
-97.603114,30.324627,0.3
-97.603114,30.324627,0.4
-97.603114,30.324627,0.2
-97.603114,30.324627,0.4
-97.603114,30.324627,-0.2
-97.603114,30.324627,-0.6
-97.603114,30.324627,-1.1
-97.603114,30.324627,-0.9
-97.603114,30.324627,-0.9
-97.603114,30.324627,-0.9
-97.603114,30.324627,-1.1
-97.603114,30.324627,-0.8
-97.603114,30.324627,-0.8
-97.603114,30.324627,-0.7
-97.603114,30.324627,-0.3
-97.603114,30.324627,-0.4
-97.603114,30.324627,-1.1
-97.603114,30.324627,-1.0
-97.603114,30.324627,-1.1
-97.603114,30.324627,-1.1
-97.603114,30.324627,-0.9
-97.603114,30.324627,-1.2
-97.603114,30.324627,-1.3
-97.603114,30.324627,-1.1
-97.603114,30.324627,-1.3
-97.603114,30.324627,-1.2
-97.603114,30.324627,-1.2
-97.603114,30.324627,-1.0
-97.603114,30.324627,-1.5
-97.603114,30.324627,-1.5
-97.603114,30.324627,-1.2
-97.603114,30.324627,-1.1
-97.603114,30.324627,-1.0
-97.603114,30.324627,-1.1
-97.603114,30.324627,-1.1
-97.603114,30.324627,-1.3
-97.603114,30.324627,-1.2
-97.603114,30.324627,-1.0
-97.603114,30.324627,-1.1
-97.603114,30.324627,-1.1
-97.603114,30.324627,-1.3
-97.603114,30.324627,-1.4
-97.603114,30.324627,-1.3
-97.603114,30.324627,-1.3
-97.603114,30.324627,-1.4
-97.603114,30.324627,-1.3
-97.603114,30.324627,-1.3
-97.603114,30.324627,-1.3
-97.603114,30.324627,-1.3
-97.603114,30.324627,-1.3
-97.603114,30.324627,-1.3
-97.603114,30.324627,-1.3
-97.603114,30.324627,-1.2
-97.603114,30.324627,-1.3
-97.603114,30.324627,-1.5
-97.603114,30.324627,-1.0
-97.603114,30.324627,-1.4
-97.603114,30.324627,-0.8
-97.603114,30.324627,-1.4
-97.603114,30.324627,-1.1
-97.603114,30.324627,-1.3
-97.603114,30.324627,-1.3
-97.603114,30.324627,-1.3
-97.603114,30.324627,-1.1
-97.603114,30.324627,-0.9
-97.603114,30.324627,-1.0
-97.603114,30.324627,-0.8
-97.603114,30.324627,-0.9
-97.603114,30.324627,-1.1
-97.603114,30.324627,-0.9
-97.603114,30.324627,-0.7
-97.603114,30.324627,-0.9
-97.603114,30.324627,-0.9
-97.603114,30.324627,-1.3
-97.603114,30.324627,-1.5
-97.603114,30.324627,-1.6
-97.603114,30.324627,-1.4
-97.603114,30.324627,-1.5
-97.603114,30.324627,-1.3
-97.603114,30.324627,-1.4
-97.603114,30.324627,-1.7
-97.603114,30.324627,-1.5
-97.603114,30.324627,-1.4
-97.603114,30.324627,-1.3
-97.603114,30.324627,-1.4
-97.603114,30.324627,-1.1
-97.603114,30.324627,-1.0
-97.603114,30.324627,-1.2
-97.603114,30.324627,-1.0
-97.603114,30.324627,-0.9
-97.603114,30.324627,-1.1
-97.603114,30.324627,-1.3
-97.603114,30.324627,-1.1
-97.603114,30.324627,-1.3
-97.603114,30.324627,-1.6
-97.603114,30.324627,-1.0
-97.603114,30.324627,-0.9
-97.603114,30.324627,-0.6
-97.603114,30.324627,-0.4
-97.603114,30.324627,-1.0
-97.603114,30.324627,-0.8
-97.603114,30.324627,-0.3
-97.603114,30.324627,-0.9
-97.603114,30.324627,-0.9
-97.603114,30.324627,-0.4
-97.603487,30.323965,-0.7
-97.603487,30.323965,-0.4
-97.603487,30.323965,-1.5
-97.603487,30.323965,-1.3
-97.603487,30.323965,-1.3
</coordinates></LineString></Placemark></Document></kml>
